COSMOS 2426 (717)       
1 29671U 06062B   19093.66578008  .00000028  00000-0  10000-3 0  9995
2 29671  65.1583 282.8141 0017052 158.4234 135.0411  2.13102970 95502
COSMOS 2433 (720)       
1 32275U 07052A   19093.63869660 -.00000048  00000-0  10000-3 0  9996
2 32275  65.8234  43.6300 0004554 283.5165 325.5746  2.13104391 89017
COSMOS 2432 (719)       
1 32276U 07052B   19094.33906198 -.00000045  00000-0  10000-3 0  9990
2 32276  65.8346  43.6881 0013154 328.7606  48.8768  2.13103842 89035
COSMOS 2434 (721)       
1 32393U 07065A   19094.14090940  .00000025  00000-0  00000+0 0  9994
2 32393  64.7556 281.5293 0005487  89.4365  72.4275  2.13102938 87735
COSMOS 2436 (723)       
1 32395U 07065C   19093.86408212  .00000026  00000-0  10000-3 0  9995
2 32395  64.7676 281.5916 0016999   6.8441 354.5601  2.13104299 87661
COSMOS 2456 (730)       
1 36111U 09070A   19093.57167528  .00000041  00000-0  00000+0 0  9995
2 36111  64.1954 161.1752 0004946 310.6029 307.4866  2.13102774 72381
COSMOS 2457 (733)       
1 36112U 09070B   19093.66798347  .00000042  00000-0  00000+0 0  9996
2 36112  64.1784 161.0772 0005425 175.8234 281.5951  2.13101467 72392
COSMOS 2459 (731)       
1 36400U 10007A   19094.20250948 -.00000047  00000-0  10000-3 0  9990
2 36400  65.7287  42.6372 0028182 347.8821 190.2936  2.13102189 70754
COSMOS 2461 (735)       
1 36401U 10007B   19093.41662985 -.00000050  00000-0  10000-3 0  9995
2 36401  65.7225  42.6352 0006429  43.9988 161.8114  2.13102154 70735
COSMOS 2460 (732)       
1 36402U 10007C   19093.82959280 -.00000049  00000-0  10000-3 0  9996
2 36402  65.7133  42.5883 0002497 314.8678 247.8197  2.13101540 70744
COSMOS 2464 (736)       
1 37139U 10041C   19093.66649876  .00000025  00000-0  00000+0 0  9999
2 37139  64.3587 281.2064 0026397  15.8910   8.8461  2.13100598 66819
COSMOS 2474 (742)       
1 37829U 11055A   19093.55353605  .00000040  00000-0  00000+0 0  9998
2 37829  64.5175 162.0172 0009361 248.3426 212.6170  2.13101793 58386
COSMOS 2476 (744)       
1 37867U 11064A   19093.70968072  .00000041  00000-0  00000-0 0  9999
2 37867  64.4976 162.0659 0019308 241.1861  25.6825  2.13101876 57731
COSMOS 2477 (745)       
1 37868U 11064B   19093.60853940  .00000040  00000-0  00000+0 0  9994
2 37868  64.5069 162.1203 0017011 242.8365 125.1745  2.13101666 57697
COSMOS 2475 (743)       
1 37869U 11064C   19093.92570590  .00000044  00000-0  00000-0 0  9992
2 37869  64.5146 162.1041 0021454 265.7019 302.6335  2.13101828 57709
COSMOS 2485 (747)       
1 39155U 13019A   19093.93718853  .00000044  00000-0  00000-0 0  9991
2 39155  64.6668 162.2314 0019833 236.7481 249.4190  2.13101825 46210
COSMOS 2492 (754)       
1 39620U 14012A   19093.64513329 -.00000050  00000-0  10000-3 0  9993
2 39620  65.6018  42.4366 0016464 325.3420 331.8212  2.13103327 39153
COSMOS 2500 (755)       
1 40001U 14032A   19093.67688380 -.00000050  00000-0  00000-0 0  9999
2 40001  65.5433  42.3836 0006002 231.2379 311.8633  2.13102658 37377
COSMOS 2501 (702K)      
1 40315U 14075A   19093.72903542  .00000024  00000-0  00000+0 0  9999
2 40315  64.0795 282.3121 0014551 203.9611 177.8126  2.13098490 33782
COSMOS 2514 (751)       
1 41330U 16008A   19093.57150398 -.00000050  00000-0  00000-0 0  9992
2 41330  65.3446  42.3697 0009751 231.2870  52.5051  2.13103113 24534
COSMOS 2516 (753)       
1 41554U 16032A   19093.77363877  .00000025  00000-0  00000+0 0  9997
2 41554  64.3016 282.2580 0010090 213.7259 115.7827  2.13101609 22140
COSMOS 2522 (752)       
1 42939U 17055A   19093.57202205  .00000026  00000-0  00000-0 0  9998
2 42939  64.5339 282.3138 0004952 250.4510 150.8777  2.13101924 11902
COSMOS 2527 (756)       
1 43508U 18053A   19093.48599900  .00000040  00000-0  00000+0 0  9996
2 43508  64.8313 161.9996 0007657 237.0593 129.2946  2.13102555  6195
COSMOS 2529 (757)       
1 43687U 18086A   19093.33112763  .00000028  00000-0  00000-0 0  9999
2 43687  64.7469 282.3244 0008047 280.5746 251.6622  2.13101948  3200
